NORAD_CAT_ID,OBJECT_NAME,OBJECT_TYPE,EPOCH,MEAN_MOTION,ECCENTRICITY,INCLINATION,RA_OF_ASC_NODE,ARG_OF_PERICENTER,MEAN_ANOMALY,BSTAR,MEAN_MOTION_DOT,MEAN_MOTION_DDOT,TLE_LINE0,TLE_LINE1,TLE_LINE2,SEMIMAJOR_AXIS,PERIOD,APOGEE,PERIGEE,DECAYED
51719.0,STARLINK-3540,PAYLOAD,2022-08-11 22:00:00,15.08818859,0.0001666999999999,53.2179,70.9747,59.4826,165.0809,0.00089262,0.00013938,0.0,0 STARLINK-3540,1 51719U 22016F   22223.91667824  .00013938  00000-0  89262-3 0  9992,2 51719  53.2179  70.9747 0001667  59.4826 165.0809 15.08818859 27360,6917.945,95.439,540.9630000000002,538.6569999999998,0.0
51719.0,STARLINK-3540,PAYLOAD,2022-08-12 14:00:01,15.08845817,0.0001530999999999,53.2177,67.9802,69.4141,178.3222,0.0010951,0.00017186,0.0,0 STARLINK-3540,1 51719U 22016F   22224.58334491  .00017186  00000-0  10951-2 0  9994,2 51719  53.2177  67.9802 0001531  69.4141 178.3222 15.08845817  1303,6917.863,95.437,540.7869999999998,538.668,0.0
51719.0,STARLINK-3540,PAYLOAD,2022-08-12 22:00:01,15.08840641,0.0001643,53.2175,66.4854,60.7901,198.617,0.00084878,0.00013246,0.0,0 STARLINK-3540,1 51719U 22016F   22224.91668981  .00013246  00000-0  84878-3 0  9998,2 51719  53.2175  66.4854 0001643  60.7901 198.6170 15.08840641  1301,6917.878000000002,95.438,540.88,538.607,0.0
51719.0,STARLINK-3540,PAYLOAD,2022-08-13 14:00:01,15.08829701,0.0001425,53.2173,63.4909,68.7004,213.7825,0.00045717,6.993e-05,0.0,0 STARLINK-3540,1 51719U 22016F   22225.58334491  .00006993  00000-0  45717-3 0  9998,2 51719  53.2173  63.4909 0001425  68.7004 213.7825 15.08829701  1307,6917.9119999999975,95.438,540.763,538.7909999999998,0.0
51719.0,STARLINK-3540,PAYLOAD,2022-08-13 22:00:00,15.08815877,0.0001561,53.2172,61.9962,59.4331,234.6394,0.0016984,0.00026828,0.0,0 STARLINK-3540,1 51719U 22016F   22225.91667824  .00026828  00000-0  16984-2 0  9996,2 51719  53.2172  61.9962 0001561  59.4331 234.6394 15.08815877  1301,6917.954000000002,95.439,540.899,538.739,0.0
51719.0,STARLINK-3540,PAYLOAD,2022-08-14 14:00:01,15.088497199999996,0.0001467,53.2172,59.0015,68.0344,249.2085,0.00020823,3.028e-05,0.0,0 STARLINK-3540,1 51719U 22016F   22226.58334491  .00003028  00000-0  20823-3 0  9996,2 51719  53.2172  59.0015 0001467  68.0344 249.2085 15.08849720  1306,6917.851,95.437,540.731,538.701,0.0
51719.0,STARLINK-3540,PAYLOAD,2022-08-14 16:00:01,15.08861963,0.0001508,53.2172,58.628,65.2996,344.9049,-0.0015487,-0.00024866,0.0,0 STARLINK-3540,1 51719U 22016F   22226.66668981 -.00024866  00000-0 -15487-2 0  9993,2 51719  53.2172  58.6280 0001508  65.2996 344.9049 15.08861963 27789,6917.813,95.436,540.721,538.635,0.0
51719.0,STARLINK-3540,PAYLOAD,2022-08-14 22:00:00,15.08838152,0.0001629999999999,53.2173,57.5068,59.6173,269.2369,0.0010416,0.00016327,0.0,0 STARLINK-3540,1 51719U 22016F   22226.91667824  .00016327  00000-0  10416-2 0  9994,2 51719  53.2173  57.5068 0001630  59.6173 269.2369 15.08838152  1300,6917.886,95.438,540.879,538.623,0.0
51719.0,STARLINK-3540,PAYLOAD,2022-08-15 14:00:01,15.08842261,0.0001639,53.2176,54.5123,68.2689,283.7716,-0.0001541,-2.7399999999999995e-05,0.0,0 STARLINK-3540,1 51719U 22016F   22227.58334491 -.00002740  00000-0 -15410-3 0  9995,2 51719  53.2176  54.5123 0001639  68.2689 283.7716 15.08842261  1302,6917.873000000001,95.437,540.872,538.605,0.0
51719.0,STARLINK-3540,PAYLOAD,2022-08-15 16:00:00,15.08851483,0.0001676999999999,53.2176,54.1388,65.8174,19.1197,-0.0016504999999999,-0.00026468,0.0,0 STARLINK-3540,1 51719U 22016F   22227.66667824 -.00026468  00000-0 -16505-2 0  9991,2 51719  53.2176  54.1388 0001677  65.8174  19.1197 15.08851483 27932,6917.845,95.437,540.87,538.55,0.0
51719.0,STARLINK-3540,PAYLOAD,2022-08-15 22:00:00,15.0881943,0.0001763,53.2178,53.0176,60.5929,303.0481,0.0025274,0.00040142,0.0,0 STARLINK-3540,1 51719U 22016F   22227.91667824  .00040142  00000-0  25274-2 0  9995,2 51719  53.2178  53.0176 0001763  60.5929 303.0481 15.08819430  1303,6917.943,95.439,541.028,538.589,0.0
51719.0,STARLINK-3540,PAYLOAD,2022-08-16 08:00:01,15.08828429,0.0001594,53.218,51.1453,65.3959,42.7422,0.0024083,0.00038236,0.0,0 STARLINK-3540,1 51719U 22016F   22228.33334491  .00038236  00000-0  24083-2 0  9991,2 51719  53.2180  51.1453 0001594  65.3959  42.7422 15.08828429 28030,6917.916,95.438,540.883,538.678,0.0
51719.0,STARLINK-3540,PAYLOAD,2022-08-16 14:00:01,15.08875845,0.0001641999999999,53.2183,50.0233,66.2869,320.5386,-0.0030804,-0.00049027,0.0,0 STARLINK-3540,1 51719U 22016F   22228.58334491 -.00049027  00000-0 -30804-2 0  9998,2 51719  53.2183  50.0233 0001642  66.2869 320.5386 15.08875845  1302,6917.771,95.435,540.7719999999998,538.5,0.0
51719.0,STARLINK-3540,PAYLOAD,2022-08-16 22:00:00,15.08810419,0.0001699,53.2185,48.5285,58.1571,340.2933,0.0028533,0.00045378,0.0,0 STARLINK-3540,1 51719U 22016F   22228.91667824  .00045378  00000-0  28533-2 0  9993,2 51719  53.2185  48.5285 0001699  58.1571 340.2933 15.08810419  1308,6917.971,95.439,541.011,538.66,0.0
51719.0,STARLINK-3540,PAYLOAD,2022-08-17 14:00:01,15.08873164,0.0001561999999999,53.2189,45.5345,63.9677,357.6482,-0.0037103,-0.00058908,0.0,0 STARLINK-3540,1 51719U 22016F   22229.58334491 -.00058908  00000-0 -37103-2 0  9996,2 51719  53.2189  45.5345 0001562  63.9677 357.6482 15.08873164 28223,6917.779,95.435,540.725,538.563,0.0
51719.0,STARLINK-3540,PAYLOAD,2022-08-17 16:00:00,15.08869175,0.0001597,53.2186,45.1606,61.6232,92.898,-0.0044496,-0.00070467,0.0,0 STARLINK-3540,1 51719U 22016F   22229.66667824 -.00070467  00000-0 -44496-2 0  9991,2 51719  53.2186  45.1606 0001597  61.6232  92.8980 15.08869175  1304,6917.791,95.436,540.761,538.5509999999998,0.0
51719.0,STARLINK-3540,PAYLOAD,2022-08-18 08:00:01,15.08815926,0.0001437,53.2172,42.1673,62.1676,115.542,0.003052,0.00048587,0.0,0 STARLINK-3540,1 51719U 22016F   22230.33334491  .00048587  00000-0  30520-2 0  9997,2 51719  53.2172  42.1673 0001437  62.1676 115.5420 15.08815926 28330,6917.954000000002,95.439,540.813,538.825,0.0
51719.0,STARLINK-3540,PAYLOAD,2022-08-18 14:00:01,15.0885769,0.0001505,53.2175,41.0457,62.7366,33.6519,-0.001048,-0.00016936,0.0,0 STARLINK-3540,1 51719U 22016F   22230.58334491 -.00016936  00000-0 -10480-2 0  9992,2 51719  53.2175  41.0457 0001505  62.7366  33.6519 15.08857690  1300,6917.826,95.436,540.732,538.65,0.0
51719.0,STARLINK-3540,PAYLOAD,2022-08-18 22:00:00,15.08834109,0.0001626999999999,53.2173,39.5508,55.1285,52.8727,0.0018832999999999,0.00029807,0.0,0 STARLINK-3540,1 51719U 22016F   22230.91667824  .00029807  00000-0  18833-2 0  9997,2 51719  53.2173  39.5508 0001627  55.1285  52.8727 15.08834109 28424,6917.898,95.438,540.889,538.638,0.0
51719.0,STARLINK-3540,PAYLOAD,2022-08-19 14:00:01,15.08836914,0.0001673,53.2174,36.5569,66.3542,64.844,-0.0020983,-0.00033525,0.0,0 STARLINK-3540,1 51719U 22016F   22231.58334491 -.00033525  00000-0 -20983-2 0  9995,2 51719  53.2174  36.5569 0001673  66.3542  64.8440 15.08836914  1309,6917.89,95.438,540.9119999999998,538.597,0.0
51719.0,STARLINK-3540,PAYLOAD,2022-08-19 16:00:00,15.08823711,0.0001729,53.2173,36.1834,64.1742,159.9232,-0.0010162,-0.00016417,0.0,0 STARLINK-3540,1 51719U 22016F   22231.66667824 -.00016417  00000-0 -10162-2 0  9992,2 51719  53.2173  36.1834 0001729  64.1742 159.9232 15.08823711 28539,6917.93,95.439,540.991,538.599,0.0
51719.0,STARLINK-3540,PAYLOAD,2022-08-19 22:00:00,15.0879372,0.0001768,53.217,35.0618,59.8904,82.8853,0.0031487,0.00050117,0.0,0 STARLINK-3540,1 51719U 22016F   22231.91667824  .00050117  00000-0  31487-2 0  9996,2 51719  53.2170  35.0618 0001768  59.8904  82.8853 15.08793720  1303,6918.022,95.44,541.11,538.664,0.0
51719.0,STARLINK-3540,PAYLOAD,2022-08-20 14:00:01,15.08844255,0.0001692,53.217,32.0682,67.7845,98.121,-0.0014387,-0.00023115,0.0,0 STARLINK-3540,1 51719U 22016F   22232.58334491 -.00023115  00000-0 -14387-2 0  9991,2 51719  53.2170  32.0682 0001692  67.7845  98.1210 15.08844255  1306,6917.8669999999975,95.437,540.903,538.562,0.0
51719.0,STARLINK-3540,PAYLOAD,2022-08-20 16:00:00,15.08837852,0.0001728,53.2168,31.6947,65.0728,193.7326,-0.00097464,-0.00015765,0.0,0 STARLINK-3540,1 51719U 22016F   22232.66667824 -.00015765  00000-0 -97464-3 0  9999,2 51719  53.2168  31.6947 0001728  65.0728 193.7326 15.08837852 28688,6917.887,95.438,540.947,538.557,0.0
51719.0,STARLINK-3540,PAYLOAD,2022-08-20 22:00:00,15.08814837,0.0001754,53.2165,30.5729,60.8558,116.6442,0.0029181999999999,0.00046429,0.0,0 STARLINK-3540,1 51719U 22016F   22232.91667824  .00046429  00000-0  29182-2 0  9997,2 51719  53.2165  30.5729 0001754  60.8558 116.6442 15.08814837  1305,6917.956999999999,95.439,541.036,538.609,0.0
51719.0,STARLINK-3540,PAYLOAD,2022-08-21 14:00:01,15.08856764,0.0001708,53.2165,27.5793,68.2075,132.4615,-0.0014984,-0.00024067,0.0,0 STARLINK-3540,1 51719U 22016F   22233.58334491 -.00024067  00000-0 -14984-2 0  9992,2 51719  53.2165  27.5793 0001708  68.2075 132.4615 15.08856764  1300,6917.829000000002,95.436,540.876,538.513,0.0
51719.0,STARLINK-3540,PAYLOAD,2022-08-21 16:00:00,15.08849973,0.0001748,53.2163,27.2056,65.4779,228.0947,-0.00096726,-0.00015653,0.0,0 STARLINK-3540,1 51719U 22016F   22233.66667824 -.00015653  00000-0 -96726-3 0  9996,2 51719  53.2163  27.2056 0001748  65.4779 228.0947 15.08849973 28832,6917.85,95.437,540.924,538.506,0.0
51719.0,STARLINK-3540,PAYLOAD,2022-08-22 00:00:00,15.08858805,0.0001723,53.2161,25.7092,62.0591,243.1095,-0.0010095,-0.00016327,0.0,0 STARLINK-3540,1 51719U 22016F   22234.00001157 -.00016327  00000-0 -10095-2 0  9999,2 51719  53.2161  25.7092 0001723  62.0591 243.1095 15.08858805  1300,6917.823,95.436,540.88,538.496,0.0
51719.0,STARLINK-3540,PAYLOAD,2022-08-22 06:00:00,15.08836573,0.0001628,53.2162,24.5855,67.7915,156.0952,0.0020755,0.00032895,0.0,0 STARLINK-3540,1 51719U 22016F   22234.25001157  .00032895  00000-0  20755-2 0  9996,2 51719  53.2162  24.5855 0001628  67.7915 156.0952 15.08836573 28920,6917.891,95.438,540.882,538.63,0.0
